CCSDS_OMM_VERS = 2.0
CREATION_DATE  = 
ORIGINATOR     = 

OBJECT_NAME    = STARLINK-37022
OBJECT_ID      = 2026-044A
CENTER_NAME    = EARTH
REF_FRAME      = TEME
TIME_SYSTEM    = UTC
MEAN_ELEMENT_THEORY = SGP/SGP4

EPOCH          = 2026-04-04T20:00:01.999008
MEAN_MOTION    = 15.45331725
ECCENTRICITY   = .0001603
INCLINATION    = 97.2856
RA_OF_ASC_NODE = 56.0797
ARG_OF_PERICENTER = 112.2955
MEAN_ANOMALY   = 249.0034

EPHEMERIS_TYPE = 0
CLASSIFICATION_TYPE = U
NORAD_CAT_ID   = 68101
ELEMENT_SET_NO = 999
REV_AT_EPOCH   = 560
BSTAR          = -.43E-1
MEAN_MOTION_DOT = -.1844657E-1
MEAN_MOTION_DDOT = 0

CCSDS_OMM_VERS = 2.0
CREATION_DATE  = 
ORIGINATOR     = 

OBJECT_NAME    = STARLINK-37046
OBJECT_ID      = 2026-044B
CENTER_NAME    = EARTH
REF_FRAME      = TEME
TIME_SYSTEM    = UTC
MEAN_ELEMENT_THEORY = SGP/SGP4

EPOCH          = 2026-04-04T20:00:01.999008
MEAN_MOTION    = 15.45104754
ECCENTRICITY   = .0001896
INCLINATION    = 97.2859
RA_OF_ASC_NODE = 56.0906
ARG_OF_PERICENTER = 85.2906
MEAN_ANOMALY   = 293.3244

EPHEMERIS_TYPE = 0
CLASSIFICATION_TYPE = U
NORAD_CAT_ID   = 68102
ELEMENT_SET_NO = 999
REV_AT_EPOCH   = 560
BSTAR          = -.43633E-1
MEAN_MOTION_DOT = -.1856216E-1
MEAN_MOTION_DDOT = 0

CCSDS_OMM_VERS = 2.0
CREATION_DATE  = 
ORIGINATOR     = 

OBJECT_NAME    = STARLINK-37018
OBJECT_ID      = 2026-044C
CENTER_NAME    = EARTH
REF_FRAME      = TEME
TIME_SYSTEM    = UTC
MEAN_ELEMENT_THEORY = SGP/SGP4

EPOCH          = 2026-04-04T20:00:01.999008
MEAN_MOTION    = 15.45207515
ECCENTRICITY   = .0001636
INCLINATION    = 97.2853
RA_OF_ASC_NODE = 56.0968
ARG_OF_PERICENTER = 84.3135
MEAN_ANOMALY   = 308.3141

EPHEMERIS_TYPE = 0
CLASSIFICATION_TYPE = U
NORAD_CAT_ID   = 68103
ELEMENT_SET_NO = 999
REV_AT_EPOCH   = 555
BSTAR          = -.43613E-1
MEAN_MOTION_DOT = -.186119E-1
MEAN_MOTION_DDOT = 0

CCSDS_OMM_VERS = 2.0
CREATION_DATE  = 
ORIGINATOR     = 

OBJECT_NAME    = STARLINK-37041
OBJECT_ID      = 2026-044D
CENTER_NAME    = EARTH
REF_FRAME      = TEME
TIME_SYSTEM    = UTC
MEAN_ELEMENT_THEORY = SGP/SGP4

EPOCH          = 2026-04-04T20:00:01.999008
MEAN_MOTION    = 15.45593936
ECCENTRICITY   = .0001902
INCLINATION    = 97.2857
RA_OF_ASC_NODE = 56.1074
ARG_OF_PERICENTER = 89.5959
MEAN_ANOMALY   = 329.1035

EPHEMERIS_TYPE = 0
CLASSIFICATION_TYPE = U
NORAD_CAT_ID   = 68104
ELEMENT_SET_NO = 999
REV_AT_EPOCH   = 555
BSTAR          = -.43219E-1
MEAN_MOTION_DOT = -.1868376E-1
MEAN_MOTION_DDOT = 0

CCSDS_OMM_VERS = 2.0
CREATION_DATE  = 
ORIGINATOR     = 

OBJECT_NAME    = STARLINK-37021
OBJECT_ID      = 2026-044E
CENTER_NAME    = EARTH
REF_FRAME      = TEME
TIME_SYSTEM    = UTC
MEAN_ELEMENT_THEORY = SGP/SGP4

EPOCH          = 2026-04-04T20:00:01.999008
MEAN_MOTION    = 15.49285157
ECCENTRICITY   = .0001524
INCLINATION    = 97.2855
RA_OF_ASC_NODE = 56.0913
ARG_OF_PERICENTER = 74.4683
MEAN_ANOMALY   = 315.2772

EPHEMERIS_TYPE = 0
CLASSIFICATION_TYPE = U
NORAD_CAT_ID   = 68105
ELEMENT_SET_NO = 999
REV_AT_EPOCH   = 555
BSTAR          = -.38402E-1
MEAN_MOTION_DOT = -.1853318E-1
MEAN_MOTION_DDOT = 0

CCSDS_OMM_VERS = 2.0
CREATION_DATE  = 
ORIGINATOR     = 

OBJECT_NAME    = STARLINK-37024
OBJECT_ID      = 2026-044F
CENTER_NAME    = EARTH
REF_FRAME      = TEME
TIME_SYSTEM    = UTC
MEAN_ELEMENT_THEORY = SGP/SGP4

EPOCH          = 2026-04-04T20:00:01.999008
MEAN_MOTION    = 15.46525488
ECCENTRICITY   = .0001563
INCLINATION    = 97.2857
RA_OF_ASC_NODE = 56.1152
ARG_OF_PERICENTER = 85.2698
MEAN_ANOMALY   = 353.3578

EPHEMERIS_TYPE = 0
CLASSIFICATION_TYPE = U
NORAD_CAT_ID   = 68106
ELEMENT_SET_NO = 999
REV_AT_EPOCH   = 555
BSTAR          = -.418E-1
MEAN_MOTION_DOT = -.1866077E-1
MEAN_MOTION_DDOT = 0

CCSDS_OMM_VERS = 2.0
CREATION_DATE  = 
ORIGINATOR     = 

OBJECT_NAME    = STARLINK-37005
OBJECT_ID      = 2026-044G
CENTER_NAME    = EARTH
REF_FRAME      = TEME
TIME_SYSTEM    = UTC
MEAN_ELEMENT_THEORY = SGP/SGP4

EPOCH          = 2026-04-04T20:00:01.999008
MEAN_MOTION    = 15.45637061
ECCENTRICITY   = .0001714
INCLINATION    = 97.2855
RA_OF_ASC_NODE = 56.0964
ARG_OF_PERICENTER = 66.8921
MEAN_ANOMALY   = 336.5757

EPHEMERIS_TYPE = 0
CLASSIFICATION_TYPE = U
NORAD_CAT_ID   = 68107
ELEMENT_SET_NO = 999
REV_AT_EPOCH   = 555
BSTAR          = -.44239E-1
MEAN_MOTION_DOT = -.1910499E-1
MEAN_MOTION_DDOT = 0

CCSDS_OMM_VERS = 2.0
CREATION_DATE  = 
ORIGINATOR     = 

OBJECT_NAME    = STARLINK-37017
OBJECT_ID      = 2026-044H
CENTER_NAME    = EARTH
REF_FRAME      = TEME
TIME_SYSTEM    = UTC
MEAN_ELEMENT_THEORY = SGP/SGP4

EPOCH          = 2026-04-04T20:00:01.999008
MEAN_MOTION    = 15.46406414
ECCENTRICITY   = .0001939
INCLINATION    = 97.2857
RA_OF_ASC_NODE = 56.1228
ARG_OF_PERICENTER = 90.9661
MEAN_ANOMALY   = 3.9872

EPHEMERIS_TYPE = 0
CLASSIFICATION_TYPE = U
NORAD_CAT_ID   = 68108
ELEMENT_SET_NO = 999
REV_AT_EPOCH   = 555
BSTAR          = -.41896E-1
MEAN_MOTION_DOT = -.1863203E-1
MEAN_MOTION_DDOT = 0

CCSDS_OMM_VERS = 2.0
CREATION_DATE  = 
ORIGINATOR     = 

OBJECT_NAME    = STARLINK-36833
OBJECT_ID      = 2026-044J
CENTER_NAME    = EARTH
REF_FRAME      = TEME
TIME_SYSTEM    = UTC
MEAN_ELEMENT_THEORY = SGP/SGP4

EPOCH          = 2026-04-04T20:00:01.999008
MEAN_MOTION    = 15.47277821
ECCENTRICITY   = .0001836
INCLINATION    = 97.2856
RA_OF_ASC_NODE = 56.1300
ARG_OF_PERICENTER = 84.3272
MEAN_ANOMALY   = 30.1427

EPHEMERIS_TYPE = 0
CLASSIFICATION_TYPE = U
NORAD_CAT_ID   = 68109
ELEMENT_SET_NO = 999
REV_AT_EPOCH   = 560
BSTAR          = -.40204E-1
MEAN_MOTION_DOT = -.1813575E-1
MEAN_MOTION_DDOT = 0

CCSDS_OMM_VERS = 2.0
CREATION_DATE  = 
ORIGINATOR     = 

OBJECT_NAME    = STARLINK-36830
OBJECT_ID      = 2026-044K
CENTER_NAME    = EARTH
REF_FRAME      = TEME
TIME_SYSTEM    = UTC
MEAN_ELEMENT_THEORY = SGP/SGP4

EPOCH          = 2026-04-04T20:00:01.999008
MEAN_MOTION    = 15.46708311
ECCENTRICITY   = .0001899
INCLINATION    = 97.2856
RA_OF_ASC_NODE = 56.1273
ARG_OF_PERICENTER = 86.2719
MEAN_ANOMALY   = 20.2173

EPHEMERIS_TYPE = 0
CLASSIFICATION_TYPE = U
NORAD_CAT_ID   = 68110
ELEMENT_SET_NO = 999
REV_AT_EPOCH   = 560
BSTAR          = -.41047E-1
MEAN_MOTION_DOT = -.1846432E-1
MEAN_MOTION_DDOT = 0

CCSDS_OMM_VERS = 2.0
CREATION_DATE  = 
ORIGINATOR     = 

OBJECT_NAME    = STARLINK-36791
OBJECT_ID      = 2026-044L
CENTER_NAME    = EARTH
REF_FRAME      = TEME
TIME_SYSTEM    = UTC
MEAN_ELEMENT_THEORY = SGP/SGP4

EPOCH          = 2026-04-04T20:00:01.999008
MEAN_MOTION    = 15.47126696
ECCENTRICITY   = .0001795
INCLINATION    = 97.2855
RA_OF_ASC_NODE = 56.1378
ARG_OF_PERICENTER = 89.0288
MEAN_ANOMALY   = 41.6813

EPHEMERIS_TYPE = 0
CLASSIFICATION_TYPE = U
NORAD_CAT_ID   = 68111
ELEMENT_SET_NO = 999
REV_AT_EPOCH   = 555
BSTAR          = -.38385E-1
MEAN_MOTION_DOT = -.1732279E-1
MEAN_MOTION_DDOT = 0

CCSDS_OMM_VERS = 2.0
CREATION_DATE  = 
ORIGINATOR     = 

OBJECT_NAME    = STARLINK-36893
OBJECT_ID      = 2026-044M
CENTER_NAME    = EARTH
REF_FRAME      = TEME
TIME_SYSTEM    = UTC
MEAN_ELEMENT_THEORY = SGP/SGP4

EPOCH          = 2026-04-04T20:00:01.999008
MEAN_MOTION    = 15.47469735
ECCENTRICITY   = .0002126
INCLINATION    = 97.2858
RA_OF_ASC_NODE = 56.1419
ARG_OF_PERICENTER = 84.4274
MEAN_ANOMALY   = 58.2070

EPHEMERIS_TYPE = 0
CLASSIFICATION_TYPE = U
NORAD_CAT_ID   = 68112
ELEMENT_SET_NO = 999
REV_AT_EPOCH   = 560
BSTAR          = -.40175E-1
MEAN_MOTION_DOT = -.1823387E-1
MEAN_MOTION_DDOT = 0

