STARLINK-37022          
1 68101U 26044A   26094.83335647 -.01844657  00000+0 -43000-1 0  9996
2 68101  97.2856  56.0797 0001603 112.2955 249.0034 15.45331725  5603
STARLINK-37046          
1 68102U 26044B   26094.83335647 -.01856216  00000+0 -43633-1 0  9993
2 68102  97.2859  56.0906 0001896  85.2906 293.3244 15.45104754  5603
STARLINK-37018          
1 68103U 26044C   26094.83335647 -.01861190  00000+0 -43613-1 0  9999
2 68103  97.2853  56.0968 0001636  84.3135 308.3141 15.45207515  5558
STARLINK-37041          
1 68104U 26044D   26094.83335647 -.01868376  00000+0 -43219-1 0  9995
2 68104  97.2857  56.1074 0001902  89.5959 329.1035 15.45593936  5557
STARLINK-37021          
1 68105U 26044E   26094.83335647 -.01853318  00000+0 -38402-1 0  9994
2 68105  97.2855  56.0913 0001524  74.4683 315.2772 15.49285157  5555
STARLINK-37024          
1 68106U 26044F   26094.83335647 -.01866077  00000+0 -41800-1 0  9997
2 68106  97.2857  56.1152 0001563  85.2698 353.3578 15.46525488  5551
STARLINK-37005          
1 68107U 26044G   26094.83335647 -.01910499  00000+0 -44239-1 0  9995
2 68107  97.2855  56.0964 0001714  66.8921 336.5757 15.45637061  5554
STARLINK-37017          
1 68108U 26044H   26094.83335647 -.01863203  00000+0 -41896-1 0  9992
2 68108  97.2857  56.1228 0001939  90.9661   3.9872 15.46406414  5559
STARLINK-36833          
1 68109U 26044J   26094.83335647 -.01813575  00000+0 -40204-1 0  9992
2 68109  97.2856  56.1300 0001836  84.3272  30.1427 15.47277821  5604
STARLINK-36830          
1 68110U 26044K   26094.83335647 -.01846432  00000+0 -41047-1 0  9998
2 68110  97.2856  56.1273 0001899  86.2719  20.2173 15.46708311  5601
STARLINK-36791          
1 68111U 26044L   26094.83335647 -.01732279  00000+0 -38385-1 0  9993
2 68111  97.2855  56.1378 0001795  89.0288  41.6813 15.47126696  5557
STARLINK-36893          
1 68112U 26044M   26094.83335647 -.01823387  00000+0 -40175-1 0  9995
2 68112  97.2858  56.1419 0002126  84.4274  58.2070 15.47469735  5609
